CCSDS_OMM_VERS = 2.0
CREATION_DATE  = 
ORIGINATOR     = 

OBJECT_NAME    = UNKNOWN
OBJECT_ID      = 
CENTER_NAME    = EARTH
REF_FRAME      = TEME
TIME_SYSTEM    = UTC
MEAN_ELEMENT_THEORY = SGP/SGP4

EPOCH          = 2025-12-15T12:21:22.312512
MEAN_MOTION    = 13.26232388
ECCENTRICITY   = .06343548
INCLINATION    = 99.3481
RA_OF_ASC_NODE = 263.0273
ARG_OF_PERICENTER = 277.9549
MEAN_ANOMALY   = 75.0087

EPHEMERIS_TYPE = 0
CLASSIFICATION_TYPE = U
NORAD_CAT_ID   = 270034
ELEMENT_SET_NO = 999
REV_AT_EPOCH   = 7895
BSTAR          = .35254823E-2
MEAN_MOTION_DOT = .464E-4
MEAN_MOTION_DDOT = 0

CCSDS_OMM_VERS = 2.0
CREATION_DATE  = 
ORIGINATOR     = 

OBJECT_NAME    = UNKNOWN
OBJECT_ID      = 
CENTER_NAME    = EARTH
REF_FRAME      = TEME
TIME_SYSTEM    = UTC
MEAN_ELEMENT_THEORY = SGP/SGP4

EPOCH          = 2025-12-16T04:17:56.423328
MEAN_MOTION    = 14.00162134
ECCENTRICITY   = .00914652
INCLINATION    = 82.4425
RA_OF_ASC_NODE = 310.2668
ARG_OF_PERICENTER = 302.5981
MEAN_ANOMALY   = 56.6382

EPHEMERIS_TYPE = 0
CLASSIFICATION_TYPE = U
NORAD_CAT_ID   = 270035
ELEMENT_SET_NO = 999
REV_AT_EPOCH   = 30782
BSTAR          = .15783607E-2
MEAN_MOTION_DOT = .2427E-4
MEAN_MOTION_DDOT = 0

CCSDS_OMM_VERS = 2.0
CREATION_DATE  = 
ORIGINATOR     = 

OBJECT_NAME    = UNKNOWN
OBJECT_ID      = 
CENTER_NAME    = EARTH
REF_FRAME      = TEME
TIME_SYSTEM    = UTC
MEAN_ELEMENT_THEORY = SGP/SGP4

EPOCH          = 2025-12-17T05:44:35.001600
MEAN_MOTION    = 13.75892312
ECCENTRICITY   = .01071376
INCLINATION    = 100.3705
RA_OF_ASC_NODE = 179.1893
ARG_OF_PERICENTER = 103.7494
MEAN_ANOMALY   = 257.5605

EPHEMERIS_TYPE = 0
CLASSIFICATION_TYPE = U
NORAD_CAT_ID   = 270036
ELEMENT_SET_NO = 999
REV_AT_EPOCH   = 30359
BSTAR          = .17349402E-2
MEAN_MOTION_DOT = .1703E-4
MEAN_MOTION_DDOT = 0

CCSDS_OMM_VERS = 2.0
CREATION_DATE  = 
ORIGINATOR     = 

OBJECT_NAME    = UNKNOWN
OBJECT_ID      = 
CENTER_NAME    = EARTH
REF_FRAME      = TEME
TIME_SYSTEM    = UTC
MEAN_ELEMENT_THEORY = SGP/SGP4

EPOCH          = 2025-12-18T13:22:04.441440
MEAN_MOTION    = 12.79985004
ECCENTRICITY   = .01485028
INCLINATION    = 102.8586
RA_OF_ASC_NODE = 97.0786
ARG_OF_PERICENTER = 31.0040
MEAN_ANOMALY   = 329.9707

EPHEMERIS_TYPE = 0
CLASSIFICATION_TYPE = U
NORAD_CAT_ID   = 270038
ELEMENT_SET_NO = 999
REV_AT_EPOCH   = 28114
BSTAR          = .31179432E-1
MEAN_MOTION_DOT = .7382E-4
MEAN_MOTION_DDOT = 0

CCSDS_OMM_VERS = 2.0
CREATION_DATE  = 
ORIGINATOR     = 

OBJECT_NAME    = UNKNOWN
OBJECT_ID      = 
CENTER_NAME    = EARTH
REF_FRAME      = TEME
TIME_SYSTEM    = UTC
MEAN_ELEMENT_THEORY = SGP/SGP4

EPOCH          = 2025-12-19T20:29:31.232544
MEAN_MOTION    = 14.04490247
ECCENTRICITY   = .0009805
INCLINATION    = 82.5527
RA_OF_ASC_NODE = 32.8219
ARG_OF_PERICENTER = 20.3379
MEAN_ANOMALY   = 339.8181

EPHEMERIS_TYPE = 0
CLASSIFICATION_TYPE = U
NORAD_CAT_ID   = 270039
ELEMENT_SET_NO = 999
REV_AT_EPOCH   = 30972
BSTAR          = .12867468E-2
MEAN_MOTION_DOT = .2067E-4
MEAN_MOTION_DDOT = 0

CCSDS_OMM_VERS = 2.0
CREATION_DATE  = 
ORIGINATOR     = 

OBJECT_NAME    = UNKNOWN
OBJECT_ID      = 
CENTER_NAME    = EARTH
REF_FRAME      = TEME
TIME_SYSTEM    = UTC
MEAN_ELEMENT_THEORY = SGP/SGP4

EPOCH          = 2025-12-19T09:21:13.159296
MEAN_MOTION    = 12.53353947
ECCENTRICITY   = .00271777
INCLINATION    = 101.4089
RA_OF_ASC_NODE = 33.6560
ARG_OF_PERICENTER = 211.4036
MEAN_ANOMALY   = 148.5415

EPHEMERIS_TYPE = 0
CLASSIFICATION_TYPE = U
NORAD_CAT_ID   = 270040
ELEMENT_SET_NO = 999
REV_AT_EPOCH   = 27734
BSTAR          = .2751382E-3
MEAN_MOTION_DOT = .1E-7
MEAN_MOTION_DDOT = 0

CCSDS_OMM_VERS = 2.0
CREATION_DATE  = 
ORIGINATOR     = 

OBJECT_NAME    = UNKNOWN
OBJECT_ID      = 
CENTER_NAME    = EARTH
REF_FRAME      = TEME
TIME_SYSTEM    = UTC
MEAN_ELEMENT_THEORY = SGP/SGP4

EPOCH          = 2025-12-16T14:04:05.763648
MEAN_MOTION    = 13.96196455
ECCENTRICITY   = .02185185
INCLINATION    = 98.4940
RA_OF_ASC_NODE = 98.6006
ARG_OF_PERICENTER = 5.4620
MEAN_ANOMALY   = 354.8854

EPHEMERIS_TYPE = 0
CLASSIFICATION_TYPE = U
NORAD_CAT_ID   = 270041
ELEMENT_SET_NO = 999
REV_AT_EPOCH   = 30757
BSTAR          = .82901716E-3
MEAN_MOTION_DOT = .1353E-4
MEAN_MOTION_DDOT = 0

CCSDS_OMM_VERS = 2.0
CREATION_DATE  = 
ORIGINATOR     = 

OBJECT_NAME    = UNKNOWN
OBJECT_ID      = 
CENTER_NAME    = EARTH
REF_FRAME      = TEME
TIME_SYSTEM    = UTC
MEAN_ELEMENT_THEORY = SGP/SGP4

EPOCH          = 2025-12-16T06:01:23.915136
MEAN_MOTION    = 12.26200948
ECCENTRICITY   = .01373067
INCLINATION    = 74.0193
RA_OF_ASC_NODE = 171.6074
ARG_OF_PERICENTER = 151.1509
MEAN_ANOMALY   = 209.7210

EPHEMERIS_TYPE = 0
CLASSIFICATION_TYPE = U
NORAD_CAT_ID   = 270042
ELEMENT_SET_NO = 999
REV_AT_EPOCH   = 27107
BSTAR          = .76793481E-3
MEAN_MOTION_DOT = .74E-6
MEAN_MOTION_DDOT = 0

CCSDS_OMM_VERS = 2.0
CREATION_DATE  = 
ORIGINATOR     = 

OBJECT_NAME    = UNKNOWN
OBJECT_ID      = 
CENTER_NAME    = EARTH
REF_FRAME      = TEME
TIME_SYSTEM    = UTC
MEAN_ELEMENT_THEORY = SGP/SGP4

EPOCH          = 2025-12-17T09:51:56.301984
MEAN_MOTION    = 13.92166809
ECCENTRICITY   = .02492808
INCLINATION    = 98.9109
RA_OF_ASC_NODE = 46.2581
ARG_OF_PERICENTER = 290.3828
MEAN_ANOMALY   = 67.0718

EPHEMERIS_TYPE = 0
CLASSIFICATION_TYPE = U
NORAD_CAT_ID   = 270043
ELEMENT_SET_NO = 999
REV_AT_EPOCH   = 30618
BSTAR          = .14137508E-2
MEAN_MOTION_DOT = .229E-4
MEAN_MOTION_DDOT = 0

CCSDS_OMM_VERS = 2.0
CREATION_DATE  = 
ORIGINATOR     = 

OBJECT_NAME    = UNKNOWN
OBJECT_ID      = 
CENTER_NAME    = EARTH
REF_FRAME      = TEME
TIME_SYSTEM    = UTC
MEAN_ELEMENT_THEORY = SGP/SGP4

EPOCH          = 2025-12-12T19:37:06.959424
MEAN_MOTION    = 13.00584926
ECCENTRICITY   = .00140477
INCLINATION    = 90.2490
RA_OF_ASC_NODE = 9.1861
ARG_OF_PERICENTER = 6.7136
MEAN_ANOMALY   = 353.4172

EPHEMERIS_TYPE = 0
CLASSIFICATION_TYPE = U
NORAD_CAT_ID   = 270044
ELEMENT_SET_NO = 999
REV_AT_EPOCH   = 28658
BSTAR          = .32166355E-2
MEAN_MOTION_DOT = .983E-5
MEAN_MOTION_DDOT = 0

CCSDS_OMM_VERS = 2.0
CREATION_DATE  = 
ORIGINATOR     = 

OBJECT_NAME    = UNKNOWN
OBJECT_ID      = 
CENTER_NAME    = EARTH
REF_FRAME      = TEME
TIME_SYSTEM    = UTC
MEAN_ELEMENT_THEORY = SGP/SGP4

EPOCH          = 2025-12-14T19:32:45.630528
MEAN_MOTION    = 12.96410669
ECCENTRICITY   = .00374545
INCLINATION    = 90.2492
RA_OF_ASC_NODE = 9.2251
ARG_OF_PERICENTER = 256.4273
MEAN_ANOMALY   = 103.2674

EPHEMERIS_TYPE = 0
CLASSIFICATION_TYPE = U
NORAD_CAT_ID   = 270045
ELEMENT_SET_NO = 999
REV_AT_EPOCH   = 28626
BSTAR          = .19771516E-2
MEAN_MOTION_DOT = .574E-5
MEAN_MOTION_DDOT = 0

CCSDS_OMM_VERS = 2.0
CREATION_DATE  = 
ORIGINATOR     = 

OBJECT_NAME    = UNKNOWN
OBJECT_ID      = 
CENTER_NAME    = EARTH
REF_FRAME      = TEME
TIME_SYSTEM    = UTC
MEAN_ELEMENT_THEORY = SGP/SGP4

EPOCH          = 2025-12-15T20:31:04.524672
MEAN_MOTION    = 12.62575283
ECCENTRICITY   = .00568059
INCLINATION    = 73.9953
RA_OF_ASC_NODE = 42.3770
ARG_OF_PERICENTER = 107.5098
MEAN_ANOMALY   = 253.2178

EPHEMERIS_TYPE = 0
CLASSIFICATION_TYPE = U
NORAD_CAT_ID   = 270046
ELEMENT_SET_NO = 999
REV_AT_EPOCH   = 27884
BSTAR          = .54188946E-3
MEAN_MOTION_DOT = .82E-6
MEAN_MOTION_DDOT = 0

CCSDS_OMM_VERS = 2.0
CREATION_DATE  = 
ORIGINATOR     = 

OBJECT_NAME    = UNKNOWN
OBJECT_ID      = 
CENTER_NAME    = EARTH
REF_FRAME      = TEME
TIME_SYSTEM    = UTC
MEAN_ELEMENT_THEORY = SGP/SGP4

EPOCH          = 2025-12-19T12:35:12.009120
MEAN_MOTION    = 13.77764127
ECCENTRICITY   = .00341073
INCLINATION    = 82.9696
RA_OF_ASC_NODE = 270.1034
ARG_OF_PERICENTER = 2.0997
MEAN_ANOMALY   = 358.0298

EPHEMERIS_TYPE = 0
CLASSIFICATION_TYPE = U
NORAD_CAT_ID   = 270053
ELEMENT_SET_NO = 999
REV_AT_EPOCH   = 30451
BSTAR          = .38824972E-3
MEAN_MOTION_DOT = .405E-5
MEAN_MOTION_DDOT = 0

CCSDS_OMM_VERS = 2.0
CREATION_DATE  = 
ORIGINATOR     = 

OBJECT_NAME    = UNKNOWN
OBJECT_ID      = 
CENTER_NAME    = EARTH
REF_FRAME      = TEME
TIME_SYSTEM    = UTC
MEAN_ELEMENT_THEORY = SGP/SGP4

EPOCH          = 2025-12-17T05:55:58.652832
MEAN_MOTION    = 12.98532653
ECCENTRICITY   = .00291193
INCLINATION    = 90.2142
RA_OF_ASC_NODE = 343.9720
ARG_OF_PERICENTER = 131.4548
MEAN_ANOMALY   = 228.9081

EPHEMERIS_TYPE = 0
CLASSIFICATION_TYPE = U
NORAD_CAT_ID   = 270054
ELEMENT_SET_NO = 999
REV_AT_EPOCH   = 28690
BSTAR          = -.7742624E-3
MEAN_MOTION_DOT = -.221E-5
MEAN_MOTION_DDOT = 0

CCSDS_OMM_VERS = 2.0
CREATION_DATE  = 
ORIGINATOR     = 

OBJECT_NAME    = UNKNOWN
OBJECT_ID      = 
CENTER_NAME    = EARTH
REF_FRAME      = TEME
TIME_SYSTEM    = UTC
MEAN_ELEMENT_THEORY = SGP/SGP4

EPOCH          = 2025-12-19T06:59:05.176896
MEAN_MOTION    = 12.99272393
ECCENTRICITY   = .00321786
INCLINATION    = 90.2424
RA_OF_ASC_NODE = 0.9967
ARG_OF_PERICENTER = 112.6079
MEAN_ANOMALY   = 247.8452

EPHEMERIS_TYPE = 0
CLASSIFICATION_TYPE = U
NORAD_CAT_ID   = 270055
ELEMENT_SET_NO = 999
REV_AT_EPOCH   = 28745
BSTAR          = -.10754973E-2
MEAN_MOTION_DOT = -.313E-5
MEAN_MOTION_DDOT = 0

CCSDS_OMM_VERS = 2.0
CREATION_DATE  = 
ORIGINATOR     = 

OBJECT_NAME    = UNKNOWN
OBJECT_ID      = 
CENTER_NAME    = EARTH
REF_FRAME      = TEME
TIME_SYSTEM    = UTC
MEAN_ELEMENT_THEORY = SGP/SGP4

EPOCH          = 2025-11-28T23:40:10.073280
MEAN_MOTION    = 12.46161892
ECCENTRICITY   = .00894503
INCLINATION    = 101.5924
RA_OF_ASC_NODE = 68.9954
ARG_OF_PERICENTER = 169.2196
MEAN_ANOMALY   = 191.0815

EPHEMERIS_TYPE = 0
CLASSIFICATION_TYPE = U
NORAD_CAT_ID   = 270056
ELEMENT_SET_NO = 999
REV_AT_EPOCH   = 27324
BSTAR          = .28421374E-2
MEAN_MOTION_DOT = .374E-5
MEAN_MOTION_DDOT = 0

